0 NOAA 8
1 13923U 83022A   13282.48116936  .00000151  00000-0  77876-4 0  7069
2 13923 098.4575 290.5720 0016117 159.7457 318.1580 14.28045700589646
0 NOAA 8
1 13923U 83022A   13283.47143854  .00000154  00000-0  78819-4 0  7070
2 13923 098.4574 291.5313 0016170 156.8815 009.0492 14.28045971589782
0 NOAA 8
1 13923U 83022A   13284.14791736  .00000176  00000-0  87910-4 0  7080
2 13923 098.4573 292.1867 0016197 155.0197 246.6765 14.28046174589884
0 NOAA 8
1 13923U 83022A   13284.14791736  .00000176  00000-0  87910-4 0  7091
2 13923 098.4573 292.1867 0016197 155.0197 246.6765 14.28046174589884
0 NOAA 8
1 13923U 83022A   13285.50083800  .00000142  00000-0  73917-4 0  7105
2 13923 098.4571 293.4972 0016266 151.2515 001.7858 14.28046857590076
0 NOAA 8
1 13923U 83022A   13285.50083800  .00000142  00000-0  73917-4 0  7116
2 13923 098.4571 293.4972 0016266 151.2515 001.7858 14.28046857590076
0 NOAA 8
1 13923U 83022A   13286.40653649  .00000153  00000-0  78658-4 0  7120
2 13923 098.4569 294.3745 0016309 148.6975 337.8449 14.28047105590200
0 NOAA 8
1 13923U 83022A   13287.53577213  .00000158  00000-0  80680-4 0  7131
2 13923 098.4568 295.4683 0016368 145.5819 023.0061 14.28047694590364
0 NOAA 8
1 13923U 83022A   13287.53577213  .00000158  00000-0  80680-4 0  7142
2 13923 098.4568 295.4683 0016368 145.5819 023.0061 14.28047694590364
0 NOAA 8
1 13923U 83022A   13288.51541690  .00000217  00000-0  10440-3 0  7154
2 13923 098.4568 296.4170 0016404 142.8659 019.1673 14.28048559590501
0 NOAA 8
1 13923U 83022A   13289.49635252  .00000158  00000-0  80479-4 0  7165
2 13923 098.4568 297.3670 0016442 140.1487 021.9650 14.28049212590646
0 NOAA 8
1 13923U 83022A   13290.53716090  .00000186  00000-0  91856-4 0  7175
2 13923 098.4568 298.3750 0016483 137.2729 332.5530 14.28049615590798
0 NOAA 8
1 13923U 83022A   13291.51866458  .00000176  00000-0  87866-4 0  7184
2 13923 098.4569 299.3255 0016502 134.6014 338.2279 14.28050041590934
0 NOAA 8
1 13923U 83022A   13292.43387757  .00000187  00000-0  92378-4 0  7193
2 13923 098.4570 300.2119 0016501 132.1091 003.1208 14.28050385591060
0 NOAA 8
1 13923U 83022A   13293.49009634  .00000198  00000-0  96675-4 0  7203
2 13923 098.4571 301.2347 0016505 129.1837 032.9416 14.28050798591219
0 NOAA 8
1 13923U 83022A   13293.49009634  .00000198  00000-0  96675-4 0  7214
2 13923 098.4571 301.2347 0016505 129.1837 032.9416 14.28050798591219
0 NOAA 8
1 13923U 83022A   13294.46614521  .00000204  00000-0  99026-4 0  7221
2 13923 098.4572 302.1801 0016554 126.4868 010.6199 14.28051312591352
0 NOAA 8
1 13923U 83022A   13295.52214337  .00000218  00000-0  10452-3 0  7231
2 13923 098.4572 303.2029 0016573 123.6067 039.2653 14.28051932591504
0 NOAA 8
1 13923U 83022A   13295.52214337  .00000218  00000-0  10452-3 0  7242
2 13923 098.4572 303.2029 0016573 123.6067 039.2653 14.28051932591504
